CUTE-1 (CO-55)          
1 27844U 03031E   25136.50856447  .00000334  00000+0  16472-3 0  9990
2 27844  98.6764 145.0925 0008383 255.5891 104.4358 14.23977493135216
CUBESAT XI-IV (CO-57)   
1 27848U 03031J   25136.44575130  .00000277  00000+0  14145-3 0  9995
2 27848  98.6792 145.0543 0008252 275.7944  84.2293 14.23314614134936
CUBESAT XI-V            
1 28895U 05043F   25136.37013717  .00001640  00000+0  27572-3 0  9996
2 28895  98.2467 280.4238 0014953  28.7749 331.4279 14.70934706 43384
CUTE-1.7+APD II (CO-65) 
1 32785U 08021C   25136.85863182  .00005455  00000+0  39695-3 0  9997
2 32785  97.7850 107.8527 0008230 297.8790  62.1601 15.04197699925584
AAUSAT-II               
1 32788U 08021F   25135.94364140  .01438442  12952-2  20789-2 0  9991
2 32788  97.5833 134.9129 0009251 171.9564 188.1867 16.05571556929521
CANX-2                  
1 32790U 08021H   25136.84713460  .00003963  00000+0  31045-3 0  9998
2 32790  97.8227 106.4126 0011384 292.0889  67.9126 15.01547766925338
SEEDS II (CO-66)        
1 32791U 08021J   25136.38672967  .00010909  00000+0  53768-3 0  9998
2 32791  97.7274 115.9020 0001739 226.6920 133.4168 15.18126910926822
SWISSCUBE               
1 35932U 09051B   25136.66524884  .00001167  00000+0  24638-3 0  9997
2 35932  98.4327  32.4503 0007388  16.7876 343.3567 14.61277720831263
BEESAT-1                
1 35933U 09051C   25136.69860340  .00000968  00000+0  20872-3 0  9995
2 35933  98.4257  32.8807 0006116  31.1579 328.9982 14.60700817831364
ITUPSAT1                
1 35935U 09051E   25136.21598498  .00000896  00000+0  19903-3 0  9990
2 35935  98.4353  31.9507 0008484  37.0768 323.1016 14.59500895830811
TISAT 1                 
1 36799U 10035E   25136.70411155  .00011960  00000+0  62474-3 0  9996
2 36799  98.0598  49.2823 0003829 147.8791 212.2674 15.16066064807556
AEROCUBE 4.5A           
1 38767U 12048K   25136.45349977  .00018511  00000+0  50859-3 0  9996
2 38767  64.6485 305.7493 0100555 281.0818  77.9018 15.32303115311125
STRAND-1                
1 39090U 13009E   25136.09281859  .00000306  00000+0  11791-3 0  9993
2 39090  98.3827 321.4325 0008317 346.2430  13.8529 14.36799715640034
BRITE-AUSTRIA           
1 39091U 13009F   25136.08975531  .00000183  00000+0  77284-4 0  9993
2 39091  98.3885 320.6865 0010008 353.0300   7.0745 14.36297652640040
NEE-01 PEGASO           
1 39151U 13018B   25136.89052783  .00003049  00000+0  31630-3 0  9992
2 39151  98.0703 265.2166 0013819  33.3308 326.8777 14.90693673651615
POPACS 1                
1 39268U 13055D   25136.39062155  .00066883  50514-7  62125-3 0  9992
2 39268  80.9704 116.6943 0253689  67.5107 295.2777 15.36058730610911
POPACS 2                
1 39269U 13055E   25136.30567003  .00015657  00000+0  30745-3 0  9999
2 39269  80.9954 232.7783 0479423  13.3611 347.9774 14.75174509604398
POPACS 3                
1 39270U 13055F   25135.88673417  .00013660  00000+0  34825-3 0  9995
2 39270  81.0040 297.0529 0586768 192.3308 166.2995 14.47208344601615
ZACUBE-1 (TSHEPISOSAT)  
1 39417U 13066B   25136.84998887  .00003777  00000+0  33143-3 0  9998
2 39417  97.7797  93.9969 0045634 129.5239 231.0030 14.96419258621366
WNISAT-1                
1 39423U 13066H   25136.42164985  .00000781  00000+0  15232-3 0  9994
2 39423  97.6766 310.1905 0166457  41.8652 319.5140 14.57068252608937
TRITON-1                
1 39427U 13066M   25136.85962203  .00003183  00000+0  40619-3 0  9990
2 39427  97.8380  51.2359 0096456  83.5146 277.7036 14.78903240615646
GOMX-1                  
1 39430U 13066Q   25136.82723284  .00001477  00000+0  23702-3 0  9993
2 39430  97.6861 356.9477 0131121 268.5238  90.0945 14.67550935611923
CUBEBUG-2 (LO-74)       
1 39440U 13066AA  25136.76780179  .00003146  00000+0  32307-3 0  9999
2 39440  97.8485  81.4980 0060486 258.4901 100.9520 14.89774796619090
NEE-02 KRYSAOR          
1 39441U 13066AB  25136.78860974  .00002312  00000+0  27171-3 0  9991
2 39441  97.8549  75.5025 0067510 288.5956  70.7934 14.84267331618511
FUNCUBE-1 (AO-73)       
1 39444U 13066AE  25136.83295561  .00007197  00000+0  54313-3 0  9998
2 39444  97.7828  98.6615 0043406 106.2347 254.3659 15.01974204620614
UWE-3                   
1 39446U 13066AG  25136.33889956  .00003819  00000+0  36585-3 0  9990
2 39446  97.8229  87.4039 0052757 197.6684 162.2702 14.92715137618299
BRITE-CA1 (TORONTO)     
1 40020U 14033L   25136.84255639  .00001291  00000+0  20507-3 0  9995
2 40020  97.9222 269.6781 0081563 105.4413 255.5821 14.71571203584016
DUCHIFAT-1              
1 40021U 14033M   25136.49260859  .00019828  00000+0  73681-3 0  9993
2 40021  98.0964 148.7566 0010192  53.1368 307.0802 15.27542929594645
NANOSATC-BR1            
1 40024U 14033Q   25136.48052362  .00012232  00000+0  60865-3 0  9995
2 40024  98.0905 132.7444 0006818 110.6381 249.5582 15.17757331593553
QB50P1                  
1 40025U 14033R   25136.62490510  .00008053  00000+0  49745-3 0  9993
2 40025  98.0828 117.8949 0011922 129.9403 230.2874 15.10110486593538
QB50P2                  
1 40032U 14033Y   25136.42670786  .00005910  00000+0  38803-3 0  9996
2 40032  98.0427 106.7753 0010730  83.6861 276.5588 15.08005128592730
PERSEUS-M2              
1 40037U 14033AD  25136.85586531  .00001925  00000+0  18762-3 0  9996
2 40037  97.9548  76.1261 0012538 165.5401 194.6179 14.93645881592082
PERSEUS-M1              
1 40039U 14033AF  25136.77479577  .00002067  00000+0  20111-3 0  9999
2 40039  97.9290  71.0779 0012333 164.5241 195.6357 14.93624186591937
POLYITAN-1              
1 40042U 14033AJ  25136.37830582  .00013396  00000+0  66158-3 0  9994
2 40042  98.1027 124.9699 0012204  84.9023 275.3601 15.17950164593116
TIGRISAT                
1 40043U 14033AK  25136.37749520  .00002014  00000+0  24997-3 0  9996
2 40043  97.7333 292.4418 0050150 295.8499  63.7548 14.82845141586776
AEROCUBE 6A             
1 40045U 14033AM  25136.45667282  .00004880  00000+0  47883-3 0  9993
2 40045  97.6914 305.3095 0042095 259.4442 100.2034 14.92000803587340
AEROCUBE 6B             
1 40046U 14033AN  25136.40320583  .00005651  00000+0  53811-3 0  9994
2 40046  97.6891 304.3489 0040703 252.7614 106.9149 14.93165608587427
CANX-4                  
1 40055U 14034C   25136.55206820  .00001067  00000+0  14798-3 0  9996
2 40055  98.3652 351.2859 0012497 199.1596 160.9146 14.80162855585831
CANX-5                  
1 40056U 14034D   25136.55468749  .00001069  00000+0  14819-3 0  9993
2 40056  98.3655 351.3094 0012495 199.3897 160.6840 14.80176319576648
UKUBE-1                 
1 40074U 14037F   25136.43594532  .00008493  00000+0  60219-3 0  9996
2 40074  98.3929  96.6433 0003310  72.9002 287.2585 15.05055862588718
BRITE-PL2 (HEWELIUSZ)   
1 40119U 14049B   25136.28406330  .00001898  00000+0  19049-3 0  9997
2 40119  97.8878 241.4721 0014131 350.2185   9.8756 14.92461610582205
AEROCUBE 5C             
1 40965U 15058B   25136.21924649  .00002165  00000+0  19464-3 0  9997
2 40965  64.7690  54.7238 0167999 208.1816 151.0128 14.88373339306505
AEROCUBE 7              
1 40966U 15058C   25136.06999685  .00003004  00000+0  24792-3 0  9996
2 40966  64.7651  44.7897 0160003 208.1444 151.0954 14.91576134306643
FOX-1A (AO-85)          
1 40967U 15058D   25136.26900000  .00002178  00000+0  20044-3 0  9999
2 40967  64.7763  69.6283 0164391 203.3191 156.0405 14.87878794 54450
SINOD-D 1               
1 40968U 15058E   25136.21181091  .00003110  00000+0  26012-3 0  9994
2 40968  64.7767  58.0570 0154349 202.3748 157.0586 14.91619519 57362
SNAP-3 ALICE            
1 40970U 15058G   25135.99641105  .00019502  00000+0  82395-3 0  9996
2 40970  64.7673 344.9358 0091429 202.7751 156.9310 15.19526167 55930
LMRST-SAT               
1 40971U 15058H   25136.40542236  .00002012  00000+0  18632-3 0  9990
2 40971  64.7764  64.9090 0166634 204.7182 154.5881 14.87637550 54473
SNAP-3 EDDIE            
1 40972U 15058J   25136.51190393  .00021796  00000+0  89600-3 0  9999
2 40972  64.7600 335.8940 0097180 204.5783 155.0697 15.19897382 58125
PROPCUBE 3              
1 40973U 15058K   25136.85191464  .00002707  00000+0  23036-3 0  9999
2 40973  64.7700  47.3962 0161367 206.3883 152.8947 14.90541808 55651
BISONSAT                
1 40974U 15058L   25136.02812500  .00008354  00000+0  49839-3 0  9993
2 40974  64.7648   6.7629 0125334 205.0909 154.4089 15.05327627 55621
SNAP-3 JIMI             
1 40975U 15058M   25136.14156512  .00004465  00000+0  32873-3 0  9990
2 40975  64.7681  30.4305 0146537 205.8238 153.5514 14.96453043 54695
PROPCUBE 1 (FLORA)      
1 40976U 15058N   25136.27612069  .00001953  00000+0  18789-3 0  9998
2 40976  64.7747  82.7187 0166150 206.4218 152.8352 14.86342223 57214
SINOD-D 3               
1 40977U 15058P   25136.24230411  .00002776  00000+0  24282-3 0  9992
2 40977  64.7732  71.6076 0156255 205.7968 153.5295 14.90015518 55538
HORYU-4                 
1 41340U 16012D   25136.70019594  .00021156  00000+0  58344-3 0  9995
2 41340  30.9972 292.4071 0006639 159.2189 200.8727 15.35851482509112
RAVAN                   
1 41849U 16067B   25136.51186529  .00013532  00000+0  47425-3 0  9998
2 41849  98.0462 343.5430 0008313 327.0880  32.9840 15.29575667466669
CELTEE 1                
1 41850U 16067C   25136.51571675  .00004822  00000+0  26707-3 0  9992
2 41850  98.1074 331.5339 0002252 120.9649 239.1802 15.14353100465742
OPTICUBE 04             
1 41851U 16067D   25136.45468566  .00002864  00000+0  19470-3 0  9993
2 41851  98.0934 323.0158 0016880  21.8548 338.3395 15.07123893465364
AEROCUBE 8D             
1 41852U 16067E   25136.52288719  .00006341  00000+0  32202-3 0  9994
2 41852  98.1111 332.5839 0005239  70.5756 289.6041 15.17284935465780
AEROCUBE 8C             
1 41853U 16067F   25136.46462936  .00006462  00000+0  32692-3 0  9990
2 41853  98.0954 330.3593 0005794   0.8036 359.3204 15.17405283465766
